GLOBALSTAR M035         
1 25851U 99037A   24336.85695814 -.00000082  00000+0 -70474-3 0  9999
2 25851  51.9913 135.0286 0014039  28.0285 121.9909 11.04535487 74468
GLOBALSTAR M032         
1 25852U 99037B   24335.67601424 -.00000103  00000+0 -11502-2 0  9993
2 25852  51.9981 336.5545 0010543 194.6410 165.4086 11.19054776112562
GLOBALSTAR M051         
1 25853U 99037C   24335.83823347 -.00000046  00000+0  63080-3 0  9996
2 25853  51.9756 159.3834 0001067 150.4738 209.6133 11.42199555109728
GLOBALSTAR M030         
1 25854U 99037D   24336.43842705 -.00000046  00000+0  60417-3 0  9994
2 25854  51.9899 336.6153 0003922  53.8051 306.3128 11.55100554127293
GLOBALSTAR M048         
1 25872U 99041A   24336.57112722 -.00000085  00000+0 -41714-3 0  9996
2 25872  51.9369  85.0064 0013513 198.4001 286.5390 11.33852072102455
GLOBALSTAR M026         
1 25873U 99041B   24336.48577959 -.00000160  00000+0 -35163-2 0  9998
2 25873  52.0010 255.8952 0001123 323.0998 208.1345 11.06825840126795
GLOBALSTAR M043         
1 25874U 99041C   24335.88258796 -.00000026  00000+0  12470-2 0  9993
2 25874  51.9371 186.3863 0012811 338.8308  34.5803 11.25688291100541
GLOBALSTAR M028         
1 25875U 99041D   24335.70053408 -.00000074  00000+0  17112-3 0  9990
2 25875  51.9637  64.9119 0062993   0.8889 359.2074 12.50570887165344
